OBJECT_NAME,OBJECT_ID,EPOCH,MEAN_MOTION,ECCENTRICITY,INCLINATION,RA_OF_ASC_NODE,ARG_OF_PERICENTER,MEAN_ANOMALY,EPHEMERIS_TYPE,CLASSIFICATION_TYPE,NORAD_CAT_ID,ELEMENT_SET_NO,REV_AT_EPOCH,BSTAR,MEAN_MOTION_DOT,MEAN_MOTION_DDOT
SPACEMOBILE-004,2024-163E,2026-07-09T13:48:46.986048,15.20814564,.00081135,52.9654,205.9666,207.5207,152.5359,0,U,61049,999,10117,-.61664582E-3,-.14088E-3,0
CZ-8A R/B,2025-231K,2026-07-10T07:41:08.276352,14.30161318,.011651,50.0052,300.8991,305.4577,53.5508,0,U,66004,999,3825,.35073685E-4,-.66E-6,0
SZ-21 MODULE,2025-246C,2026-07-10T06:16:11.101440,15.78454490,.00071418,41.4699,163.3992,186.7801,173.2949,0,U,66515,999,3738,.2338459E-3,.41694E-3,0
SPACEMOBILE-006,2025-309A,2026-07-10T01:51:46.412064,15.18646763,.00104507,52.9939,226.7800,198.4648,161.5968,0,U,67232,999,3007,.24829687E-4,.198E-5,0
SPACEMOBILE-008,2026-139A,2026-07-09T23:59:35.858976,15.12797717,.00047862,52.9940,158.9953,44.1815,315.9557,0,U,69589,999,343,.35582335E-4,.331E-5,0
SPACEMOBILE-009,2026-139B,2026-07-09T08:10:28.974432,15.12690226,.00050087,52.9929,161.9998,38.0005,322.1339,0,U,69590,999,333,.4037426E-4,.414E-5,0
SPACEMOBILE-010,2026-139C,2026-07-09T14:34:37.932672,15.12521495,.00049022,52.9935,160.8181,29.8087,330.3183,0,U,69591,999,338,.33613821E-4,.292E-5,0
